[{"OBJECT_NAME":"WEINA 1A","OBJECT_ID":"2018-011A","EPOCH":"2026-03-09T00:13:48.801504","MEAN_MOTION":15.00525085,"ECCENTRICITY":0.00035503,"INCLINATION":34.9964,"RA_OF_ASC_NODE":50.6465,"ARG_OF_PERICENTER":253.6699,"MEAN_ANOMALY":106.3619,"EPHEMERIS_TYPE":0,"CLASSIFICATION_TYPE":"U","NORAD_CAT_ID":43169,"ELEMENT_SET_NO":999,"REV_AT_EPOCH":44306,"BSTAR":0.00031000167,"MEAN_MOTION_DOT":3.96e-5,"MEAN_MOTION_DDOT":0},{"OBJECT_NAME":"STARLINK-4431","OBJECT_ID":"2022-099X","EPOCH":"2026-03-09T21:35:47.349312","MEAN_MOTION":15.0126052,"ECCENTRICITY":0.00036348,"INCLINATION":97.6018,"RA_OF_ASC_NODE":190.4109,"ARG_OF_PERICENTER":169.3856,"MEAN_ANOMALY":190.7446,"EPHEMERIS_TYPE":0,"CLASSIFICATION_TYPE":"U","NORAD_CAT_ID":53486,"ELEMENT_SET_NO":999,"REV_AT_EPOCH":19601,"BSTAR":-4.7761047e-5,"MEAN_MOTION_DOT":-6.72e-6,"MEAN_MOTION_DDOT":0}]
